FALCONSAT-6             
1 43815U 18099BK  26068.72544389  .00005029  00000+0  19477-3 0  9998
2 43815  97.3865 145.8165 0014370 297.0944 181.0714 15.26532865398556
STARLINK-31368          
1 58970U 24031F   26068.86413066  .00000626  00000+0  33253-4 0  9998
2 58970  53.1605 295.6265 0000708 129.3975 230.7088 15.30200676116564
